{"type": "FeatureCollection", "features": [ {"type": "Feature", "properties": {"norad_id": 31428, "name": "FENGYUN 1C DEB", "group": "fengyun-1c-debris", "lat": 37.86594949486082, "lon": 159.27743253240598, "alt_km": 707.7144376323195, "timestamp": "2025-12-25T22:42:17.293822+00:00", "meta": {"OBJECT_NAME": "FENGYUN 1C DEB", "OBJECT_ID": "1999-025BTQ", "EPOCH": "2025-12-24T10:07:55.451712", "MEAN_MOTION": 14.42065599, "ECCENTRICITY": 0.00644202, "INCLINATION": 99.0396, "RA_OF_ASC_NODE": 330.5542, "ARG_OF_PERICENTER": 119.3559, "MEAN_ANOMALY": 35.2408, "EPHEMERIS_TYPE": 0, "CLASSIFICATION_TYPE": "U", "NORAD_CAT_ID": 31428, "ELEMENT_SET_NO": 999, "REV_AT_EPOCH": 97678, "BSTAR": 0.00073759176, "MEAN_MOTION_DOT": 2.435e-05, "MEAN_MOTION_DDOT": 0}, "tle": {"line1": "1 31428U 99025BTQ 25358.42216958  .00002435  00000+0  73759-3 0  9990", "line2": "2 31428  99.0396 330.5542 0064420 119.3559  35.2408 14.42065599976781"}}, "geometry": {"type": "Point", "coordinates": [159.27743253240598, 37.86594949486082]}}, {"type": "Feature", "properties": {"norad_id": 31429, "name": "FENGYUN 1C DEB", "group": "fengyun-1c-debris", "lat": -12.822575249725725, "lon": 50.69082177446737, "alt_km": 813.066251831221, "timestamp": "2025-12-25T22:42:17.293832+00:00", "meta": {"OBJECT_NAME": "FENGYUN 1C DEB", "OBJECT_ID": "1999-025BTR", "EPOCH": "2025-12-22T22:45:46.278720", "MEAN_MOTION": 14.22608914, "ECCENTRICITY": 0.00141272, "INCLINATION": 98.6873, "RA_OF_ASC_NODE": 45.7417, "ARG_OF_PERICENTER": 35.194, "MEAN_ANOMALY": 88.8738, "EPHEMERIS_TYPE": 0, "CLASSIFICATION_TYPE": "U", "NORAD_CAT_ID": 31429, "ELEMENT_SET_NO": 999, "REV_AT_EPOCH": 96098, "BSTAR": 0.00092186864, "MEAN_MOTION_DOT": 2.019e-05, "MEAN_MOTION_DDOT": 0}, "tle": {"line1": "1 31429U 99025BTR 25356.94845230  .00002019  00000+0  92187-3 0  9991", "line2": "2 31429  98.6873  45.7417 0014127  35.1940  88.8738 14.22608914960988"}}, "geometry": {"type": "Point", "coordinates": [50.69082177446737, -12.822575249725725]}}, {"type": "Feature", "properties": {"norad_id": 31430, "name": "FENGYUN 1C DEB", "group": "fengyun-1c-debris", "lat": 33.42115387600651, "lon": 57.1048022158661, "alt_km": 787.8955113247248, "timestamp": "2025-12-25T22:42:17.293842+00:00", "meta": {"OBJECT_NAME": "FENGYUN 1C DEB", "OBJECT_ID": "1999-025BTS", "EPOCH": "2025-12-24T02:53:33.918144", "MEAN_MOTION": 14.25649441, "ECCENTRICITY": 0.00262734, "INCLINATION": 98.7422, "RA_OF_ASC_NODE": 61.113, "ARG_OF_PERICENTER": 8.6478, "MEAN_ANOMALY": 21.3416, "EPHEMERIS_TYPE": 0, "CLASSIFICATION_TYPE": "U", "NORAD_CAT_ID": 31430, "ELEMENT_SET_NO": 999, "REV_AT_EPOCH": 96280, "BSTAR": 0.00091561863, "MEAN_MOTION_DOT": 2.134e-05, "MEAN_MOTION_DDOT": 0}, "tle": {"line1": "1 31430U 99025BTS 25358.12053146  .00002134  00000+0  91562-3 0  9996", "line2": "2 31430  98.7422  61.1130 0026273   8.6478  21.3416 14.25649441962802"}}, "geometry": {"type": "Point", "coordinates": [57.1048022158661, 33.42115387600651]}}, {"type": "Feature", "properties": {"norad_id": 31431, "name": "FENGYUN 1C DEB", "group": "fengyun-1c-debris", "lat": -64.0790724693673, "lon": -94.66300489712734, "alt_km": 942.9164094090729, "timestamp": "2025-12-25T22:42:17.293852+00:00", "meta": {"OBJECT_NAME": "FENGYUN 1C DEB", "OBJECT_ID": "1999-025BTT", "EPOCH": "2025-12-17T02:48:02.899008", "MEAN_MOTION": 14.0310372, "ECCENTRICITY": 0.01337574, "INCLINATION": 98.5434, "RA_OF_ASC_NODE": 239.0286, "ARG_OF_PERICENTER": 83.045, "MEAN_ANOMALY": 278.5911, "EPHEMERIS_TYPE": 0, "CLASSIFICATION_TYPE": "U", "NORAD_CAT_ID": 31431, "ELEMENT_SET_NO": 999, "REV_AT_EPOCH": 94593, "BSTAR": 0.001336432, "MEAN_MOTION_DOT": 2.211e-05, "MEAN_MOTION_DDOT": 0}, "tle": {"line1": "1 31431U 99025BTT 25351.11670022  .00002211  00000+0  13364-2 0  9996", "line2": "2 31431  98.5434 239.0286 0133757  83.0450 278.5911 14.03103720945937"}}, "geometry": {"type": "Point", "coordinates": [-94.66300489712734, -64.0790724693673]}}, {"type": "Feature", "properties": {"norad_id": 31433, "name": "FENGYUN 1C DEB", "group": "fengyun-1c-debris", "lat": -24.951220481215802, "lon": 78.93283595499308, "alt_km": 871.6271247615105, "timestamp": "2025-12-25T22:42:17.293862+00:00", "meta": {"OBJECT_NAME": "FENGYUN 1C DEB", "OBJECT_ID": "1999-025BTV", "EPOCH": "2025-12-21T10:13:00.561216", "MEAN_MOTION": 14.25519142, "ECCENTRICITY": 0.01002046, "INCLINATION": 98.4108, "RA_OF_ASC_NODE": 258.5435, "ARG_OF_PERICENTER": 4.4201, "MEAN_ANOMALY": 56.5126, "EPHEMERIS_TYPE": 0, "CLASSIFICATION_TYPE": "U", "NORAD_CAT_ID": 31433, "ELEMENT_SET_NO": 999, "REV_AT_EPOCH": 95676, "BSTAR": 0.0018800586, "MEAN_MOTION_DOT": 4.645e-05, "MEAN_MOTION_DDOT": 0}, "tle": {"line1": "1 31433U 99025BTV 25355.42570094  .00004645  00000+0  18801-2 0  9998", "line2": "2 31433  98.4108 258.5435 0100204   4.4201  56.5126 14.25519142956768"}}, "geometry": {"type": "Point", "coordinates": [78.93283595499308, -24.951220481215802]}}, {"type": "Feature", "properties": {"norad_id": 31435, "name": "FENGYUN 1C DEB", "group": "fengyun-1c-debris", "lat": 8.407376436949674, "lon": -5.840769656995814, "alt_km": 624.893292717441, "timestamp": "2025-12-25T22:42:17.293872+00:00", "meta": {"OBJECT_NAME": "FENGYUN 1C DEB", "OBJECT_ID": "1999-025BTX", "EPOCH": "2025-12-25T10:21:45.220032", "MEAN_MOTION": 14.53464497, "ECCENTRICITY": 0.0149508, "INCLINATION": 99.0371, "RA_OF_ASC_NODE": 172.2569, "ARG_OF_PERICENTER": 141.834, "MEAN_ANOMALY": 219.3554, "EPHEMERIS_TYPE": 0, "CLASSIFICATION_TYPE": "U", "NORAD_CAT_ID": 31435, "ELEMENT_SET_NO": 999, "REV_AT_EPOCH": 98557, "BSTAR": 0.00022085, "MEAN_MOTION_DOT": 1.007e-05, "MEAN_MOTION_DDOT": 0}, "tle": {"line1": "1 31435U 99025BTX 25359.43177338  .00001007  00000+0  22085-3 0  9998", "line2": "2 31435  99.0371 172.2569 0149508 141.8340 219.3554 14.53464497985577"}}, "geometry": {"type": "Point", "coordinates": [-5.840769656995814, 8.407376436949674]}}, {"type": "Feature", "properties": {"norad_id": 31436, "name": "FENGYUN 1C DEB", "group": "fengyun-1c-debris", "lat": -79.53946956275144, "lon": -23.288048981216114, "alt_km": 578.2293593874701, "timestamp": "2025-12-25T22:42:17.293882+00:00", "meta": {"OBJECT_NAME": "FENGYUN 1C DEB", "OBJECT_ID": "1999-025BTY", "EPOCH": "2025-12-25T13:37:41.440800", "MEAN_MOTION": 14.94912309, "ECCENTRICITY": 0.0040982, "INCLINATION": 98.8835, "RA_OF_ASC_NODE": 214.1877, "ARG_OF_PERICENTER": 199.4527, "MEAN_ANOMALY": 190.4492, "EPHEMERIS_TYPE": 0, "CLASSIFICATION_TYPE": "U", "NORAD_CAT_ID": 31436, "ELEMENT_SET_NO": 999, "REV_AT_EPOCH": 97068, "BSTAR": 0.0049261, "MEAN_MOTION_DOT": 0.00054971, "MEAN_MOTION_DDOT": 0}, "tle": {"line1": "1 31436U 99025BTY 25359.56784075  .00054971  00000+0  49261-2 0  9997", "line2": "2 31436  98.8835 214.1877 0040982 199.4527 190.4492 14.94912309970681"}}, "geometry": {"type": "Point", "coordinates": [-23.288048981216114, -79.53946956275144]}}, {"type": "Feature", "properties": {"norad_id": 31437, "name": "FENGYUN 1C DEB", "group": "fengyun-1c-debris", "lat": -25.74991390942197, "lon": -102.78696584531065, "alt_km": 743.5733723111634, "timestamp": "2025-12-25T22:42:17.293892+00:00", "meta": {"OBJECT_NAME": "FENGYUN 1C DEB", "OBJECT_ID": "1999-025BTZ", "EPOCH": "2025-12-24T04:08:22.097472", "MEAN_MOTION": 14.42670174, "ECCENTRICITY": 0.00163555, "INCLINATION": 98.8638, "RA_OF_ASC_NODE": 79.687, "ARG_OF_PERICENTER": 215.2128, "MEAN_ANOMALY": 144.7981, "EPHEMERIS_TYPE": 0, "CLASSIFICATION_TYPE": "U", "NORAD_CAT_ID": 31437, "ELEMENT_SET_NO": 999, "REV_AT_EPOCH": 96675, "BSTAR": 0.0024316964, "MEAN_MOTION_DOT": 8.062e-05, "MEAN_MOTION_DDOT": 0}, "tle": {"line1": "1 31437U 99025BTZ 25358.17247798  .00008062  00000+0  24317-2 0  9995", "line2": "2 31437  98.8638  79.6870 0016355 215.2128 144.7981 14.42670174966753"}}, "geometry": {"type": "Point", "coordinates": [-102.78696584531065, -25.74991390942197]}}, {"type": "Feature", "properties": {"norad_id": 31439, "name": "FENGYUN 1C DEB", "group": "fengyun-1c-debris", "lat": -75.62737798821153, "lon": 43.32458890662446, "alt_km": 1007.9329587833727, "timestamp": "2025-12-25T22:42:17.293902+00:00", "meta": {"OBJECT_NAME": "FENGYUN 1C DEB", "OBJECT_ID": "1999-025BUB", "EPOCH": "2025-12-25T06:10:52.154112", "MEAN_MOTION": 13.95604429, "ECCENTRICITY": 0.0138111, "INCLINATION": 98.9166, "RA_OF_ASC_NODE": 4.8768, "ARG_OF_PERICENTER": 127.4201, "MEAN_ANOMALY": 296.0838, "EPHEMERIS_TYPE": 0, "CLASSIFICATION_TYPE": "U", "NORAD_CAT_ID": 31439, "ELEMENT_SET_NO": 999, "REV_AT_EPOCH": 63407, "BSTAR": 0.00081777, "MEAN_MOTION_DOT": 1.164e-05, "MEAN_MOTION_DDOT": 0}, "tle": {"line1": "1 31439U 99025BUB 25359.25754808  .00001164  00000+0  81777-3 0  9992", "line2": "2 31439  98.9166   4.8768 0138111 127.4201 296.0838 13.95604429634075"}}, "geometry": {"type": "Point", "coordinates": [43.32458890662446, -75.62737798821153]}}, {"type": "Feature", "properties": {"norad_id": 31440, "name": "FENGYUN 1C DEB", "group": "fengyun-1c-debris", "lat": 16.225844764195624, "lon": 85.58497496429716, "alt_km": 762.5812483614573, "timestamp": "2025-12-25T22:42:17.293912+00:00", "meta": {"OBJECT_NAME": "FENGYUN 1C DEB", "OBJECT_ID": "1999-025BUC", "EPOCH": "2025-12-24T23:13:50.173248", "MEAN_MOTION": 14.36819252, "ECCENTRICITY": 0.00372153, "INCLINATION": 98.745, "RA_OF_ASC_NODE": 87.1591, "ARG_OF_PERICENTER": 304.5091, "MEAN_ANOMALY": 55.2582, "EPHEMERIS_TYPE": 0, "CLASSIFICATION_TYPE": "U", "NORAD_CAT_ID": 31440, "ELEMENT_SET_NO": 999, "REV_AT_EPOCH": 96501, "BSTAR": 0.0019081649, "MEAN_MOTION_DOT": 5.639e-05, "MEAN_MOTION_DDOT": 0}, "tle": {"line1": "1 31440U 99025BUC 25358.96794182  .00005639  00000+0  19082-2 0  9990", "line2": "2 31440  98.7450  87.1591 0037215 304.5091  55.2582 14.36819252965017"}}, "geometry": {"type": "Point", "coordinates": [85.58497496429716, 16.225844764195624]}}]}